{
  "type": "FeatureCollection",
  "features": [
    {
      "type": "Feature",
      "properties": {
        "norad_id": 28899,
        "name": "INMARSAT 4-F2 (SOUTHPAN/PRN 122)",
        "group": "gnss",
        "lat": 2.8642821240641334,
        "lon": -172.21080364426575,
        "alt_km": 35785.201487997045,
        "timestamp": "2025-12-24T20:42:21.268764+00:00",
        "meta_object_name": "INMARSAT 4-F2 (SOUTHPAN/PRN 122)",
        "meta_object_id": "2005-044A",
        "meta_epoch": "2025-12-23T22:52:38.784288",
        "meta_mean_motion": 1.00271112,
        "meta_eccentricity": 0.00024043,
        "meta_inclination": 4.8648,
        "meta_ra_of_asc_node": 43.7099,
        "meta_arg_of_pericenter": 229.5084,
        "meta_mean_anomaly": 306.1825,
        "meta_ephemeris_type": 0,
        "meta_classification_type": "U",
        "meta_norad_cat_id": 28899,
        "meta_element_set_no": 999,
        "meta_rev_at_epoch": 7376,
        "meta_bstar": 0,
        "meta_mean_motion_dot": -2.42e-06,
        "meta_mean_motion_ddot": 0,
        "tle_line1": "1 28899U 05044A   25357.95322667 -.00000242  00000+0  00000+0 0  9998",
        "tle_line2": "2 28899   4.8648  43.7099 0002404 229.5084 306.1825  1.00271112 73763"
      },
      "geometry": {
        "type": "Point",
        "coordinates": [
          -172.21080364426575,
          2.8642821240641334
        ]
      }
    },
    {
      "type": "Feature",
      "properties": {
        "norad_id": 29486,
        "name": "GPS BIIRM-2 (PRN 31)",
        "group": "gnss",
        "lat": -54.54067826985293,
        "lon": 62.50997051399883,
        "alt_km": 20422.745099814005,
        "timestamp": "2025-12-24T20:42:21.268777+00:00",
        "meta_object_name": "GPS BIIRM-2 (PRN 31)",
        "meta_object_id": "2006-042A",
        "meta_epoch": "2025-12-23T12:09:08.290944",
        "meta_mean_motion": 2.00553717,
        "meta_eccentricity": 0.01072791,
        "meta_inclination": 54.6953,
        "meta_ra_of_asc_node": 158.3137,
        "meta_arg_of_pericenter": 52.2028,
        "meta_mean_anomaly": 315.7837,
        "meta_ephemeris_type": 0,
        "meta_classification_type": "U",
        "meta_norad_cat_id": 29486,
        "meta_element_set_no": 999,
        "meta_rev_at_epoch": 14087,
        "meta_bstar": 0,
        "meta_mean_motion_dot": 8.4e-07,
        "meta_mean_motion_ddot": 0,
        "tle_line1": "1 29486U 06042A   25357.50634596  .00000084  00000+0  00000+0 0  9991",
        "tle_line2": "2 29486  54.6953 158.3137 0107279  52.2028 315.7837  2.00553717140870"
      },
      "geometry": {
        "type": "Point",
        "coordinates": [
          62.50997051399883,
          -54.54067826985293
        ]
      }
    },
    {
      "type": "Feature",
      "properties": {
        "norad_id": 29601,
        "name": "GPS BIIRM-3 (PRN 12)",
        "group": "gnss",
        "lat": -28.061016526330704,
        "lon": -161.02637214854488,
        "alt_km": 20309.312474595914,
        "timestamp": "2025-12-24T20:42:21.268790+00:00",
        "meta_object_name": "GPS BIIRM-3 (PRN 12)",
        "meta_object_id": "2006-052A",
        "meta_epoch": "2025-12-22T22:00:58.169952",
        "meta_mean_motion": 2.00574295,
        "meta_eccentricity": 0.0087996,
        "meta_inclination": 54.9685,
        "meta_ra_of_asc_node": 220.9942,
        "meta_arg_of_pericenter": 87.562,
        "meta_mean_anomaly": 273.5353,
        "meta_ephemeris_type": 0,
        "meta_classification_type": "U",
        "meta_norad_cat_id": 29601,
        "meta_element_set_no": 999,
        "meta_rev_at_epoch": 13987,
        "meta_bstar": 0,
        "meta_mean_motion_dot": 6.8e-07,
        "meta_mean_motion_ddot": 0,
        "tle_line1": "1 29601U 06052A   25356.91733993  .00000068  00000+0  00000+0 0  9998",
        "tle_line2": "2 29601  54.9685 220.9942 0087996  87.5620 273.5353  2.00574295139872"
      },
      "geometry": {
        "type": "Point",
        "coordinates": [
          -161.02637214854488,
          -28.061016526330704
        ]
      }
    },
    {
      "type": "Feature",
      "properties": {
        "norad_id": 32260,
        "name": "GPS BIIRM-4 (PRN 15)",
        "group": "gnss",
        "lat": 50.99931978259395,
        "lon": -156.59377471697692,
        "alt_km": 19768.08494878178,
        "timestamp": "2025-12-24T20:42:21.268802+00:00",
        "meta_object_name": "GPS BIIRM-4 (PRN 15)",
        "meta_object_id": "2007-047A",
        "meta_epoch": "2025-12-23T05:22:00.882048",
        "meta_mean_motion": 2.00564099,
        "meta_eccentricity": 0.01640403,
        "meta_inclination": 53.9621,
        "meta_ra_of_asc_node": 87.3254,
        "meta_arg_of_pericenter": 85.3777,
        "meta_mean_anomaly": 276.5133,
        "meta_ephemeris_type": 0,
        "meta_classification_type": "U",
        "meta_norad_cat_id": 32260,
        "meta_element_set_no": 999,
        "meta_rev_at_epoch": 13328,
        "meta_bstar": 0,
        "meta_mean_motion_dot": -6e-08,
        "meta_mean_motion_ddot": 0,
        "tle_line1": "1 32260U 07047A   25357.22362132 -.00000006  00000+0  00000+0 0  9999",
        "tle_line2": "2 32260  53.9621  87.3254 0164040  85.3777 276.5133  2.00564099133281"
      },
      "geometry": {
        "type": "Point",
        "coordinates": [
          -156.59377471697692,
          50.99931978259395
        ]
      }
    },
    {
      "type": "Feature",
      "properties": {
        "norad_id": 32275,
        "name": "COSMOS 2433 (720)",
        "group": "gnss",
        "lat": 28.99545812829377,
        "lon": -23.709615463753213,
        "alt_km": 19135.980163427324,
        "timestamp": "2025-12-24T20:42:21.268815+00:00",
        "meta_object_name": "COSMOS 2433 (720)",
        "meta_object_id": "2007-052A",
        "meta_epoch": "2025-12-22T00:07:36.568704",
        "meta_mean_motion": 2.13104226,
        "meta_eccentricity": 0.00051704,
        "meta_inclination": 65.6781,
        "meta_ra_of_asc_node": 321.8942,
        "meta_arg_of_pericenter": 255.846,
        "meta_mean_anomaly": 104.0915,
        "meta_ephemeris_type": 0,
        "meta_classification_type": "U",
        "meta_norad_cat_id": 32275,
        "meta_element_set_no": 999,
        "meta_rev_at_epoch": 14128,
        "meta_bstar": 0,
        "meta_mean_motion_dot": -4.2e-07,
        "meta_mean_motion_ddot": 0,
        "tle_line1": "1 32275U 07052A   25356.00528436 -.00000042  00000+0  00000+0 0  9997",
        "tle_line2": "2 32275  65.6781 321.8942 0005170 255.8460 104.0915  2.13104226141283"
      },
      "geometry": {
        "type": "Point",
        "coordinates": [
          -23.709615463753213,
          28.99545812829377
        ]
      }
    },
    {
      "type": "Feature",
      "properties": {
        "norad_id": 32276,
        "name": "COSMOS 2432 (719)",
        "group": "gnss",
        "lat": -21.24568531330725,
        "lon": -48.20539139032689,
        "alt_km": 19105.965721861452,
        "timestamp": "2025-12-24T20:42:21.268827+00:00",
        "meta_object_name": "COSMOS 2432 (719)",
        "meta_object_id": "2007-052B",
        "meta_epoch": "2025-12-24T04:32:38.772960",
        "meta_mean_motion": 2.13103387,
        "meta_eccentricity": 0.00113791,
        "meta_inclination": 65.6931,
        "meta_ra_of_asc_node": 321.9458,
        "meta_arg_of_pericenter": 314.7871,
        "meta_mean_anomaly": 225.1187,
        "meta_ephemeris_type": 0,
        "meta_classification_type": "U",
        "meta_norad_cat_id": 32276,
        "meta_element_set_no": 999,
        "meta_rev_at_epoch": 14135,
        "meta_bstar": 0,
        "meta_mean_motion_dot": -3.3e-07,
        "meta_mean_motion_ddot": 0,
        "tle_line1": "1 32276U 07052B   25358.18933765 -.00000033  00000+0  00000+0 0  9994",
        "tle_line2": "2 32276  65.6931 321.9458 0011379 314.7871 225.1187  2.13103387141354"
      },
      "geometry": {
        "type": "Point",
        "coordinates": [
          -48.20539139032689,
          -21.24568531330725
        ]
      }
    },
    {
      "type": "Feature",
      "properties": {
        "norad_id": 32384,
        "name": "GPS BIIRM-5 (PRN 29)",
        "group": "gnss",
        "lat": -42.216473080755975,
        "lon": 140.26067905105694,
        "alt_km": 20163.093591774155,
        "timestamp": "2025-12-24T20:42:21.268839+00:00",
        "meta_object_name": "GPS BIIRM-5 (PRN 29)",
        "meta_object_id": "2007-062A",
        "meta_epoch": "2025-12-24T04:33:25.319232",
        "meta_mean_motion": 2.00549289,
        "meta_eccentricity": 0.00313762,
        "meta_inclination": 55.1723,
        "meta_ra_of_asc_node": 281.1867,
        "meta_arg_of_pericenter": 162.3601,
        "meta_mean_anomaly": 306.4071,
        "meta_ephemeris_type": 0,
        "meta_classification_type": "U",
        "meta_norad_cat_id": 32384,
        "meta_element_set_no": 999,
        "meta_rev_at_epoch": 13200,
        "meta_bstar": 0,
        "meta_mean_motion_dot": -2.2e-07,
        "meta_mean_motion_ddot": 0,
        "tle_line1": "1 32384U 07062A   25358.18987638 -.00000022  00000+0  00000+0 0  9991",
        "tle_line2": "2 32384  55.1723 281.1867 0031376 162.3601 306.4071  2.00549289132003"
      },
      "geometry": {
        "type": "Point",
        "coordinates": [
          140.26067905105694,
          -42.216473080755975
        ]
      }
    }
  ]
}